HULIANWANG DIGUI-144    
1 67442U 26007H   26025.74911670  .00000079  00000+0  18259-3 0  9991
2 67442  50.0094 246.1412 0001616 332.0180  28.0631 13.89759554  1696
HULIANWANG DIGUI-145    
1 67443U 26007J   26025.67533293  .00000111  00000+0  20739-3 0  9998
2 67443  50.0082 246.4141 0002289  16.8061 343.2913 13.89929487  1686
CZ-8A R/B               
1 67444U 26007K   26025.63596826  .00000185  00000+0  17263-3 0  9995
2 67444  50.0086 244.8613 0092175 124.2162 236.7523 14.13548319  1699
STARLINK-36542          
1 67445U 26008A   26025.83336806 -.01127653  00000+0 -40628-2 0  9992
2 67445  43.0010  93.9689 0001504 277.6024   0.0635 15.90236017  2907
STARLINK-36539          
1 67446U 26008B   26025.83336806 -.01138964  00000+0 -41006-2 0  9991
2 67446  43.0011  93.9621 0001606 277.8842   2.4566 15.90274686  2901
STARLINK-36440          
1 67447U 26008C   26025.83336806 -.01133190  00000+0 -40733-2 0  9994
2 67447  43.0012  93.9551 0001493 275.7516   7.4991 15.90293416  2903
STARLINK-36423          
1 67448U 26008D   26025.83336806 -.01150591  00000+0 -41343-2 0  9997
2 67448  43.0012  93.9481 0001549 277.4096   8.4332 15.90340610  2909
STARLINK-36519          
1 67449U 26008E   26025.83336806 -.01152456  00000+0 -41365-2 0  9994
2 67449  43.0011  93.9410 0001479 273.7436  14.9331 15.90366823  2905
STARLINK-36525          
1 67450U 26008F   26025.83336806 -.01164793  00000+0 -41792-2 0  9997
2 67450  43.0008  93.9326 0001486 273.8937  18.0689 15.90403115  2901
STARLINK-36511          
1 67451U 26008G   26025.83336806 -.01173053  00000+0 -42056-2 0  9991
2 67451  43.0010  93.9243 0001567 276.2529  19.1092 15.90436283  2909
STARLINK-36524          
1 67452U 26008H   26025.83336806 -.01173294  00000+0 -42001-2 0  9999
2 67452  43.0011  93.9167 0001584 277.3313  20.8973 15.90465806  2908
STARLINK-36518          
1 67453U 26008J   26025.83336806 -.01626894  74508-3 -44712-2 0  9998
2 67453  42.9998  93.5889 0001516 284.3088 142.3122 15.93152966  2921
