CCSDS_OMM_VERS = 2.0
CREATION_DATE  = 
ORIGINATOR     = 

OBJECT_NAME    = HULIANWANG DIGUI-144
OBJECT_ID      = 2026-007H
CENTER_NAME    = EARTH
REF_FRAME      = TEME
TIME_SYSTEM    = UTC
MEAN_ELEMENT_THEORY = SGP/SGP4

EPOCH          = 2026-01-25T17:58:43.682880
MEAN_MOTION    = 13.89759554
ECCENTRICITY   = .0001616
INCLINATION    = 50.0094
RA_OF_ASC_NODE = 246.1412
ARG_OF_PERICENTER = 332.0180
MEAN_ANOMALY   = 28.0631

EPHEMERIS_TYPE = 0
CLASSIFICATION_TYPE = U
NORAD_CAT_ID   = 67442
ELEMENT_SET_NO = 999
REV_AT_EPOCH   = 169
BSTAR          = .18259E-3
MEAN_MOTION_DOT = .79E-6
MEAN_MOTION_DDOT = 0

CCSDS_OMM_VERS = 2.0
CREATION_DATE  = 
ORIGINATOR     = 

OBJECT_NAME    = HULIANWANG DIGUI-145
OBJECT_ID      = 2026-007J
CENTER_NAME    = EARTH
REF_FRAME      = TEME
TIME_SYSTEM    = UTC
MEAN_ELEMENT_THEORY = SGP/SGP4

EPOCH          = 2026-01-25T16:12:28.765152
MEAN_MOTION    = 13.89929487
ECCENTRICITY   = .0002289
INCLINATION    = 50.0082
RA_OF_ASC_NODE = 246.4141
ARG_OF_PERICENTER = 16.8061
MEAN_ANOMALY   = 343.2913

EPHEMERIS_TYPE = 0
CLASSIFICATION_TYPE = U
NORAD_CAT_ID   = 67443
ELEMENT_SET_NO = 999
REV_AT_EPOCH   = 168
BSTAR          = .20739E-3
MEAN_MOTION_DOT = .111E-5
MEAN_MOTION_DDOT = 0

CCSDS_OMM_VERS = 2.0
CREATION_DATE  = 
ORIGINATOR     = 

OBJECT_NAME    = CZ-8A R/B
OBJECT_ID      = 2026-007K
CENTER_NAME    = EARTH
REF_FRAME      = TEME
TIME_SYSTEM    = UTC
MEAN_ELEMENT_THEORY = SGP/SGP4

EPOCH          = 2026-01-25T15:15:47.657664
MEAN_MOTION    = 14.13548319
ECCENTRICITY   = .0092175
INCLINATION    = 50.0086
RA_OF_ASC_NODE = 244.8613
ARG_OF_PERICENTER = 124.2162
MEAN_ANOMALY   = 236.7523

EPHEMERIS_TYPE = 0
CLASSIFICATION_TYPE = U
NORAD_CAT_ID   = 67444
ELEMENT_SET_NO = 999
REV_AT_EPOCH   = 169
BSTAR          = .17263E-3
MEAN_MOTION_DOT = .185E-5
MEAN_MOTION_DDOT = 0

CCSDS_OMM_VERS = 2.0
CREATION_DATE  = 
ORIGINATOR     = 

OBJECT_NAME    = STARLINK-36542
OBJECT_ID      = 2026-008A
CENTER_NAME    = EARTH
REF_FRAME      = TEME
TIME_SYSTEM    = UTC
MEAN_ELEMENT_THEORY = SGP/SGP4

EPOCH          = 2026-01-25T20:00:03.000384
MEAN_MOTION    = 15.90236017
ECCENTRICITY   = .0001504
INCLINATION    = 43.0010
RA_OF_ASC_NODE = 93.9689
ARG_OF_PERICENTER = 277.6024
MEAN_ANOMALY   = 0.0635

EPHEMERIS_TYPE = 0
CLASSIFICATION_TYPE = U
NORAD_CAT_ID   = 67445
ELEMENT_SET_NO = 999
REV_AT_EPOCH   = 290
BSTAR          = -.40628E-2
MEAN_MOTION_DOT = -.1127653E-1
MEAN_MOTION_DDOT = 0

CCSDS_OMM_VERS = 2.0
CREATION_DATE  = 
ORIGINATOR     = 

OBJECT_NAME    = STARLINK-36539
OBJECT_ID      = 2026-008B
CENTER_NAME    = EARTH
REF_FRAME      = TEME
TIME_SYSTEM    = UTC
MEAN_ELEMENT_THEORY = SGP/SGP4

EPOCH          = 2026-01-25T20:00:03.000384
MEAN_MOTION    = 15.90274686
ECCENTRICITY   = .0001606
INCLINATION    = 43.0011
RA_OF_ASC_NODE = 93.9621
ARG_OF_PERICENTER = 277.8842
MEAN_ANOMALY   = 2.4566

EPHEMERIS_TYPE = 0
CLASSIFICATION_TYPE = U
NORAD_CAT_ID   = 67446
ELEMENT_SET_NO = 999
REV_AT_EPOCH   = 290
BSTAR          = -.41006E-2
MEAN_MOTION_DOT = -.1138964E-1
MEAN_MOTION_DDOT = 0

CCSDS_OMM_VERS = 2.0
CREATION_DATE  = 
ORIGINATOR     = 

OBJECT_NAME    = STARLINK-36440
OBJECT_ID      = 2026-008C
CENTER_NAME    = EARTH
REF_FRAME      = TEME
TIME_SYSTEM    = UTC
MEAN_ELEMENT_THEORY = SGP/SGP4

EPOCH          = 2026-01-25T20:00:03.000384
MEAN_MOTION    = 15.90293416
ECCENTRICITY   = .0001493
INCLINATION    = 43.0012
RA_OF_ASC_NODE = 93.9551
ARG_OF_PERICENTER = 275.7516
MEAN_ANOMALY   = 7.4991

EPHEMERIS_TYPE = 0
CLASSIFICATION_TYPE = U
NORAD_CAT_ID   = 67447
ELEMENT_SET_NO = 999
REV_AT_EPOCH   = 290
BSTAR          = -.40733E-2
MEAN_MOTION_DOT = -.113319E-1
MEAN_MOTION_DDOT = 0

CCSDS_OMM_VERS = 2.0
CREATION_DATE  = 
ORIGINATOR     = 

OBJECT_NAME    = STARLINK-36423
OBJECT_ID      = 2026-008D
CENTER_NAME    = EARTH
REF_FRAME      = TEME
TIME_SYSTEM    = UTC
MEAN_ELEMENT_THEORY = SGP/SGP4

EPOCH          = 2026-01-25T20:00:03.000384
MEAN_MOTION    = 15.90340610
ECCENTRICITY   = .0001549
INCLINATION    = 43.0012
RA_OF_ASC_NODE = 93.9481
ARG_OF_PERICENTER = 277.4096
MEAN_ANOMALY   = 8.4332

EPHEMERIS_TYPE = 0
CLASSIFICATION_TYPE = U
NORAD_CAT_ID   = 67448
ELEMENT_SET_NO = 999
REV_AT_EPOCH   = 290
BSTAR          = -.41343E-2
MEAN_MOTION_DOT = -.1150591E-1
MEAN_MOTION_DDOT = 0

CCSDS_OMM_VERS = 2.0
CREATION_DATE  = 
ORIGINATOR     = 

OBJECT_NAME    = STARLINK-36519
OBJECT_ID      = 2026-008E
CENTER_NAME    = EARTH
REF_FRAME      = TEME
TIME_SYSTEM    = UTC
MEAN_ELEMENT_THEORY = SGP/SGP4

EPOCH          = 2026-01-25T20:00:03.000384
MEAN_MOTION    = 15.90366823
ECCENTRICITY   = .0001479
INCLINATION    = 43.0011
RA_OF_ASC_NODE = 93.9410
ARG_OF_PERICENTER = 273.7436
MEAN_ANOMALY   = 14.9331

EPHEMERIS_TYPE = 0
CLASSIFICATION_TYPE = U
NORAD_CAT_ID   = 67449
ELEMENT_SET_NO = 999
REV_AT_EPOCH   = 290
BSTAR          = -.41365E-2
MEAN_MOTION_DOT = -.1152456E-1
MEAN_MOTION_DDOT = 0

CCSDS_OMM_VERS = 2.0
CREATION_DATE  = 
ORIGINATOR     = 

OBJECT_NAME    = STARLINK-36525
OBJECT_ID      = 2026-008F
CENTER_NAME    = EARTH
REF_FRAME      = TEME
TIME_SYSTEM    = UTC
MEAN_ELEMENT_THEORY = SGP/SGP4

EPOCH          = 2026-01-25T20:00:03.000384
MEAN_MOTION    = 15.90403115
ECCENTRICITY   = .0001486
INCLINATION    = 43.0008
RA_OF_ASC_NODE = 93.9326
ARG_OF_PERICENTER = 273.8937
MEAN_ANOMALY   = 18.0689

EPHEMERIS_TYPE = 0
CLASSIFICATION_TYPE = U
NORAD_CAT_ID   = 67450
ELEMENT_SET_NO = 999
REV_AT_EPOCH   = 290
BSTAR          = -.41792E-2
MEAN_MOTION_DOT = -.1164793E-1
MEAN_MOTION_DDOT = 0

CCSDS_OMM_VERS = 2.0
CREATION_DATE  = 
ORIGINATOR     = 

OBJECT_NAME    = STARLINK-36511
OBJECT_ID      = 2026-008G
CENTER_NAME    = EARTH
REF_FRAME      = TEME
TIME_SYSTEM    = UTC
MEAN_ELEMENT_THEORY = SGP/SGP4

EPOCH          = 2026-01-25T20:00:03.000384
MEAN_MOTION    = 15.90436283
ECCENTRICITY   = .0001567
INCLINATION    = 43.0010
RA_OF_ASC_NODE = 93.9243
ARG_OF_PERICENTER = 276.2529
MEAN_ANOMALY   = 19.1092

EPHEMERIS_TYPE = 0
CLASSIFICATION_TYPE = U
NORAD_CAT_ID   = 67451
ELEMENT_SET_NO = 999
REV_AT_EPOCH   = 290
BSTAR          = -.42056E-2
MEAN_MOTION_DOT = -.1173053E-1
MEAN_MOTION_DDOT = 0

CCSDS_OMM_VERS = 2.0
CREATION_DATE  = 
ORIGINATOR     = 

OBJECT_NAME    = STARLINK-36524
OBJECT_ID      = 2026-008H
CENTER_NAME    = EARTH
REF_FRAME      = TEME
TIME_SYSTEM    = UTC
MEAN_ELEMENT_THEORY = SGP/SGP4

EPOCH          = 2026-01-25T20:00:03.000384
MEAN_MOTION    = 15.90465806
ECCENTRICITY   = .0001584
INCLINATION    = 43.0011
RA_OF_ASC_NODE = 93.9167
ARG_OF_PERICENTER = 277.3313
MEAN_ANOMALY   = 20.8973

EPHEMERIS_TYPE = 0
CLASSIFICATION_TYPE = U
NORAD_CAT_ID   = 67452
ELEMENT_SET_NO = 999
REV_AT_EPOCH   = 290
BSTAR          = -.42001E-2
MEAN_MOTION_DOT = -.1173294E-1
MEAN_MOTION_DDOT = 0

CCSDS_OMM_VERS = 2.0
CREATION_DATE  = 
ORIGINATOR     = 

OBJECT_NAME    = STARLINK-36518
OBJECT_ID      = 2026-008J
CENTER_NAME    = EARTH
REF_FRAME      = TEME
TIME_SYSTEM    = UTC
MEAN_ELEMENT_THEORY = SGP/SGP4

EPOCH          = 2026-01-25T20:00:03.000384
MEAN_MOTION    = 15.93152966
ECCENTRICITY   = .0001516
INCLINATION    = 42.9998
RA_OF_ASC_NODE = 93.5889
ARG_OF_PERICENTER = 284.3088
MEAN_ANOMALY   = 142.3122

EPHEMERIS_TYPE = 0
CLASSIFICATION_TYPE = U
NORAD_CAT_ID   = 67453
ELEMENT_SET_NO = 999
REV_AT_EPOCH   = 292
BSTAR          = -.44712E-2
MEAN_MOTION_DOT = -.1626894E-1
MEAN_MOTION_DDOT = .74508E-3

